[Satellite]
VERSION=1.1
NAME=NOAA 7 [-]
NICKNAME=NOAA 7 [-]
TLE1=1 12553U 81059A   18020.96103888 -.00000019  00000-0  13399-4 0  9993
TLE2=2 12553  99.0738  11.8555 0011564   4.3140  19.6697 14.17234158889951
